{"type": "FeatureCollection", "features": [ {"type": "Feature", "properties": {"norad_id": 44542, "name": "BEIDOU-3 M24 (C46)", "group": "gnss", "lat": 53.58048557566795, "lon": -94.98547530933573, "alt_km": 21506.998786665838, "timestamp": "2025-12-22T04:03:39.412461+00:00", "meta": {"OBJECT_NAME": "BEIDOU-3 M24 (C46)", "OBJECT_ID": "2019-061A", "EPOCH": "2025-12-20T23:21:37.865088", "MEAN_MOTION": 1.86229471, "ECCENTRICITY": 0.0009592, "INCLINATION": 54.4004, "RA_OF_ASC_NODE": 188.7381, "ARG_OF_PERICENTER": 25.7188, "MEAN_ANOMALY": 334.3821, "EPHEMERIS_TYPE": 0, "CLASSIFICATION_TYPE": "U", "NORAD_CAT_ID": 44542, "ELEMENT_SET_NO": 999, "REV_AT_EPOCH": 4247, "BSTAR": 0, "MEAN_MOTION_DOT": 9.6e-07, "MEAN_MOTION_DDOT": 0}, "tle": {"line1": "1 44542U 19061A   25354.97335492  .00000096  00000+0  00000+0 0  9990", "line2": "2 44542  54.4004 188.7381 0009592  25.7188 334.3821  1.86229471 42471"}}, "geometry": {"type": "Point", "coordinates": [-94.98547530933573, 53.58048557566795]}}, {"type": "Feature", "properties": {"norad_id": 44543, "name": "BEIDOU-3 M23 (C45)", "group": "gnss", "lat": -4.484725078759252, "lon": -174.55230101631167, "alt_km": 21514.68374073567, "timestamp": "2025-12-22T04:03:39.412475+00:00", "meta": {"OBJECT_NAME": "BEIDOU-3 M23 (C45)", "OBJECT_ID": "2019-061B", "EPOCH": "2025-12-21T09:48:50.565312", "MEAN_MOTION": 1.86227721, "ECCENTRICITY": 0.00060743, "INCLINATION": 54.3995, "RA_OF_ASC_NODE": 188.6918, "ARG_OF_PERICENTER": 25.4235, "MEAN_ANOMALY": 179.4087, "EPHEMERIS_TYPE": 0, "CLASSIFICATION_TYPE": "U", "NORAD_CAT_ID": 44543, "ELEMENT_SET_NO": 999, "REV_AT_EPOCH": 4248, "BSTAR": 0, "MEAN_MOTION_DOT": 9.5e-07, "MEAN_MOTION_DDOT": 0}, "tle": {"line1": "1 44543U 19061B   25355.40891858  .00000095  00000+0  00000+0 0  9992", "line2": "2 44543  54.3995 188.6918 0006074  25.4235 179.4087  1.86227721 42486"}}, "geometry": {"type": "Point", "coordinates": [-174.55230101631167, -4.484725078759252]}}, {"type": "Feature", "properties": {"norad_id": 44624, "name": "EUTELSAT 5 WEST B (EGNOS/PRN 121)", "group": "gnss", "lat": 0.02534579636120383, "lon": 146.85920538613559, "alt_km": 35793.248317407255, "timestamp": "2025-12-22T04:03:39.412487+00:00", "meta": {"OBJECT_NAME": "EUTELSAT 5 WEST B (EGNOS/PRN 121)", "OBJECT_ID": "2019-067A", "EPOCH": "2025-12-21T18:18:34.310304", "MEAN_MOTION": 1.0027136, "ECCENTRICITY": 0.0003012, "INCLINATION": 0.066, "RA_OF_ASC_NODE": 337.4911, "ARG_OF_PERICENTER": 292.925, "MEAN_ANOMALY": 89.8087, "EPHEMERIS_TYPE": 0, "CLASSIFICATION_TYPE": "U", "NORAD_CAT_ID": 44624, "ELEMENT_SET_NO": 999, "REV_AT_EPOCH": 2265, "BSTAR": 0, "MEAN_MOTION_DOT": -2e-07, "MEAN_MOTION_DDOT": 0}, "tle": {"line1": "1 44624U 19067A   25355.76289711 -.00000020  00000+0  00000+0 0  9995", "line2": "2 44624   0.0660 337.4911 0003012 292.9250  89.8087  1.00271360 22652"}}, "geometry": {"type": "Point", "coordinates": [146.85920538613559, 0.02534579636120383]}}, {"type": "Feature", "properties": {"norad_id": 44793, "name": "BEIDOU-3 M22 (C44)", "group": "gnss", "lat": -7.390572307445109, "lon": 131.41885105367854, "alt_km": 21545.4151199018, "timestamp": "2025-12-22T04:03:39.412501+00:00", "meta": {"OBJECT_NAME": "BEIDOU-3 M22 (C44)", "OBJECT_ID": "2019-078A", "EPOCH": "2025-12-21T08:24:25.549344", "MEAN_MOTION": 1.86232186, "ECCENTRICITY": 0.00060493, "INCLINATION": 54.1004, "RA_OF_ASC_NODE": 306.084, "ARG_OF_PERICENTER": 24.1688, "MEAN_ANOMALY": 335.8571, "EPHEMERIS_TYPE": 0, "CLASSIFICATION_TYPE": "U", "NORAD_CAT_ID": 44793, "ELEMENT_SET_NO": 999, "REV_AT_EPOCH": 4133, "BSTAR": 0, "MEAN_MOTION_DOT": -6.2e-07, "MEAN_MOTION_DDOT": 0}, "tle": {"line1": "1 44793U 19078A   25355.35029571 -.00000062  00000+0  00000+0 0  9991", "line2": "2 44793  54.1004 306.0840 0006049  24.1688 335.8571  1.86232186 41332"}}, "geometry": {"type": "Point", "coordinates": [131.41885105367854, -7.390572307445109]}}, {"type": "Feature", "properties": {"norad_id": 44794, "name": "BEIDOU-3 M21 (C43)", "group": "gnss", "lat": 53.55188509825424, "lon": 47.29193711484388, "alt_km": 21520.850023194103, "timestamp": "2025-12-22T04:03:39.412512+00:00", "meta": {"OBJECT_NAME": "BEIDOU-3 M21 (C43)", "OBJECT_ID": "2019-078B", "EPOCH": "2025-12-21T11:42:57.580416", "MEAN_MOTION": 1.86227937, "ECCENTRICITY": 0.0004275, "INCLINATION": 54.0738, "RA_OF_ASC_NODE": 306.0442, "ARG_OF_PERICENTER": 12.7061, "MEAN_ANOMALY": 347.3029, "EPHEMERIS_TYPE": 0, "CLASSIFICATION_TYPE": "U", "NORAD_CAT_ID": 44794, "ELEMENT_SET_NO": 999, "REV_AT_EPOCH": 4134, "BSTAR": 0, "MEAN_MOTION_DOT": -6.1e-07, "MEAN_MOTION_DDOT": 0}, "tle": {"line1": "1 44794U 19078B   25355.48816644 -.00000061  00000+0  00000+0 0  9990", "line2": "2 44794  54.0738 306.0442 0004275  12.7061 347.3029  1.86227937 41346"}}, "geometry": {"type": "Point", "coordinates": [47.29193711484388, 53.55188509825424]}}, {"type": "Feature", "properties": {"norad_id": 44850, "name": "COSMOS 2544 (759)", "group": "gnss", "lat": 35.27305664609436, "lon": 98.47257770292813, "alt_km": 19157.126216111974, "timestamp": "2025-12-22T04:03:39.412524+00:00", "meta": {"OBJECT_NAME": "COSMOS 2544 (759)", "OBJECT_ID": "2019-088A", "EPOCH": "2025-12-21T04:18:06.635808", "MEAN_MOTION": 2.13102151, "ECCENTRICITY": 0.001427, "INCLINATION": 65.4641, "RA_OF_ASC_NODE": 79.6763, "ARG_OF_PERICENTER": 250.212, "MEAN_ANOMALY": 109.6709, "EPHEMERIS_TYPE": 0, "CLASSIFICATION_TYPE": "U", "NORAD_CAT_ID": 44850, "ELEMENT_SET_NO": 999, "REV_AT_EPOCH": 4692, "BSTAR": 0, "MEAN_MOTION_DOT": -1e-07, "MEAN_MOTION_DDOT": 0}, "tle": {"line1": "1 44850U 19088A   25355.17924347 -.00000010  00000+0  00000+0 0  9994", "line2": "2 44850  65.4641  79.6763 0014270 250.2120 109.6709  2.13102151 46922"}}, "geometry": {"type": "Point", "coordinates": [98.47257770292813, 35.27305664609436]}}, {"type": "Feature", "properties": {"norad_id": 44864, "name": "BEIDOU-3 M19 (C41)", "group": "gnss", "lat": -50.35718004170991, "lon": 15.419203319655264, "alt_km": 21483.0002638111, "timestamp": "2025-12-22T04:03:39.412540+00:00", "meta": {"OBJECT_NAME": "BEIDOU-3 M19 (C41)", "OBJECT_ID": "2019-090A", "EPOCH": "2025-12-21T08:18:55.694880", "MEAN_MOTION": 1.86231675, "ECCENTRICITY": 0.00183109, "INCLINATION": 56.3999, "RA_OF_ASC_NODE": 68.6763, "ARG_OF_PERICENTER": 285.0239, "MEAN_ANOMALY": 175.8266, "EPHEMERIS_TYPE": 0, "CLASSIFICATION_TYPE": "U", "NORAD_CAT_ID": 44864, "ELEMENT_SET_NO": 999, "REV_AT_EPOCH": 4092, "BSTAR": 0, "MEAN_MOTION_DOT": -3.6e-07, "MEAN_MOTION_DDOT": 0}, "tle": {"line1": "1 44864U 19090A   25355.34647795 -.00000036  00000+0  00000+0 0  9998", "line2": "2 44864  56.3999  68.6763 0018310 285.0239 175.8266  1.86231675 40926"}}, "geometry": {"type": "Point", "coordinates": [15.419203319655264, -50.35718004170991]}}, {"type": "Feature", "properties": {"norad_id": 44865, "name": "BEIDOU-3 M20 (C42)", "group": "gnss", "lat": 18.33983391992317, "lon": 81.41427307026902, "alt_km": 21522.071848796517, "timestamp": "2025-12-22T04:03:39.412551+00:00", "meta": {"OBJECT_NAME": "BEIDOU-3 M20 (C42)", "OBJECT_ID": "2019-090B", "EPOCH": "2025-12-21T01:49:05.066976", "MEAN_MOTION": 1.86231552, "ECCENTRICITY": 0.00154797, "INCLINATION": 56.4014, "RA_OF_ASC_NODE": 68.7196, "ARG_OF_PERICENTER": 297.2086, "MEAN_ANOMALY": 71.7471, "EPHEMERIS_TYPE": 0, "CLASSIFICATION_TYPE": "U", "NORAD_CAT_ID": 44865, "ELEMENT_SET_NO": 999, "REV_AT_EPOCH": 4090, "BSTAR": 0, "MEAN_MOTION_DOT": -3.8e-07, "MEAN_MOTION_DDOT": 0}, "tle": {"line1": "1 44865U 19090B   25355.07575309 -.00000038  00000+0  00000+0 0  9992", "line2": "2 44865  56.4014  68.7196 0015479 297.2086  71.7471  1.86231552 40909"}}, "geometry": {"type": "Point", "coordinates": [81.41427307026902, 18.33983391992317]}}, {"type": "Feature", "properties": {"norad_id": 45344, "name": "BEIDOU-3 G2 (C60)", "group": "gnss", "lat": -0.36399646149931203, "lon": -128.0997691470033, "alt_km": 35779.603067663804, "timestamp": "2025-12-22T04:03:39.412563+00:00", "meta": {"OBJECT_NAME": "BEIDOU-3 G2 (C60)", "OBJECT_ID": "2020-017A", "EPOCH": "2025-12-19T13:38:45.370752", "MEAN_MOTION": 1.00273166, "ECCENTRICITY": 0.0002079, "INCLINATION": 2.5096, "RA_OF_ASC_NODE": 44.0024, "ARG_OF_PERICENTER": 233.0917, "MEAN_ANOMALY": 96.0359, "EPHEMERIS_TYPE": 0, "CLASSIFICATION_TYPE": "U", "NORAD_CAT_ID": 45344, "ELEMENT_SET_NO": 999, "REV_AT_EPOCH": 2145, "BSTAR": 0, "MEAN_MOTION_DOT": -1.18e-06, "MEAN_MOTION_DDOT": 0}, "tle": {"line1": "1 45344U 20017A   25353.56858068 -.00000118  00000+0  00000+0 0  9993", "line2": "2 45344   2.5096  44.0024 0002079 233.0917  96.0359  1.00273166 21451"}}, "geometry": {"type": "Point", "coordinates": [-128.0997691470033, -0.36399646149931203]}}, {"type": "Feature", "properties": {"norad_id": 45358, "name": "COSMOS 2545 (760)", "group": "gnss", "lat": -57.531408732670975, "lon": -172.71944319317527, "alt_km": 19106.953683554493, "timestamp": "2025-12-22T04:03:39.412575+00:00", "meta": {"OBJECT_NAME": "COSMOS 2545 (760)", "OBJECT_ID": "2020-018A", "EPOCH": "2025-12-20T21:44:12.708096", "MEAN_MOTION": 2.13102664, "ECCENTRICITY": 0.00114269, "INCLINATION": 64.4648, "RA_OF_ASC_NODE": 318.6832, "ARG_OF_PERICENTER": 250.0027, "MEAN_ANOMALY": 109.8672, "EPHEMERIS_TYPE": 0, "CLASSIFICATION_TYPE": "U", "NORAD_CAT_ID": 45358, "ELEMENT_SET_NO": 999, "REV_AT_EPOCH": 4486, "BSTAR": 0, "MEAN_MOTION_DOT": -5e-07, "MEAN_MOTION_DDOT": 0}, "tle": {"line1": "1 45358U 20018A   25354.90570264 -.00000050  00000+0  00000+0 0  9992", "line2": "2 45358  64.4648 318.6832 0011426 250.0027 109.8672  2.13102664 44860"}}, "geometry": {"type": "Point", "coordinates": [-172.71944319317527, -57.531408732670975]}}]}